{
  "type": "FeatureCollection",
  "features": [
    {
      "type": "Feature",
      "properties": {
        "norad_id": 43262,
        "name": "GAOFEN-1 04",
        "group": "resource",
        "lat": -81.80051952410916,
        "lon": 158.2280418488046,
        "alt_km": 648.2713736676524,
        "timestamp": "2025-12-26T16:33:55.241491+00:00",
        "meta_object_name": "GAOFEN-1 04",
        "meta_object_id": "2018-031D",
        "meta_epoch": "2025-12-26T07:13:10.712352",
        "meta_mean_motion": 14.76433333,
        "meta_eccentricity": 4.949e-05,
        "meta_inclination": 98.0785,
        "meta_ra_of_asc_node": 58.14,
        "meta_arg_of_pericenter": 66.2308,
        "meta_mean_anomaly": 293.8954,
        "meta_ephemeris_type": 0,
        "meta_classification_type": "U",
        "meta_norad_cat_id": 43262,
        "meta_element_set_no": 999,
        "meta_rev_at_epoch": 41717,
        "meta_bstar": 0.00013762747,
        "meta_mean_motion_dot": 9.05e-06,
        "meta_mean_motion_ddot": 0,
        "tle_line1": "1 43262U 18031D   25360.30081843  .00000905  00000+0  13763-3 0  9999",
        "tle_line2": "2 43262  98.0785  58.1400 0000494  66.2308 293.8954 14.76433333417173"
      },
      "geometry": {
        "type": "Point",
        "coordinates": [
          158.2280418488046,
          -81.80051952410916
        ]
      }
    },
    {
      "type": "Feature",
      "properties": {
        "norad_id": 43437,
        "name": "SENTINEL-3B",
        "group": "resource",
        "lat": 74.31397592356626,
        "lon": -81.60994733362945,
        "alt_km": 794.4493733589388,
        "timestamp": "2025-12-26T16:33:55.241500+00:00",
        "meta_object_name": "SENTINEL-3B",
        "meta_object_id": "2018-039A",
        "meta_epoch": "2025-12-26T04:18:07.439328",
        "meta_mean_motion": 14.26739121,
        "meta_eccentricity": 0.0001576,
        "meta_inclination": 98.6249,
        "meta_ra_of_asc_node": 65.1708,
        "meta_arg_of_pericenter": 88.4171,
        "meta_mean_anomaly": 271.719,
        "meta_ephemeris_type": 0,
        "meta_classification_type": "U",
        "meta_norad_cat_id": 43437,
        "meta_element_set_no": 999,
        "meta_rev_at_epoch": 39945,
        "meta_bstar": 7.3873108e-05,
        "meta_mean_motion_dot": 1.35e-06,
        "meta_mean_motion_ddot": 0,
        "tle_line1": "1 43437U 18039A   25360.17925277  .00000135  00000+0  73873-4 0  9998",
        "tle_line2": "2 43437  98.6249  65.1708 0001576  88.4171 271.7190 14.26739121399459"
      },
      "geometry": {
        "type": "Point",
        "coordinates": [
          -81.60994733362945,
          74.31397592356626
        ]
      }
    },
    {
      "type": "Feature",
      "properties": {
        "norad_id": 43461,
        "name": "GAOFEN-5 01",
        "group": "resource",
        "lat": -18.69883780275069,
        "lon": -33.218778249327,
        "alt_km": 696.9876083184799,
        "timestamp": "2025-12-26T16:33:55.241514+00:00",
        "meta_object_name": "GAOFEN-5 01",
        "meta_object_id": "2018-043A",
        "meta_epoch": "2025-12-25T20:55:11.303904",
        "meta_mean_motion": 14.60423654,
        "meta_eccentricity": 5.489e-05,
        "meta_inclination": 98.4347,
        "meta_ra_of_asc_node": 323.0695,
        "meta_arg_of_pericenter": 234.7022,
        "meta_mean_anomaly": 125.4127,
        "meta_ephemeris_type": 0,
        "meta_classification_type": "U",
        "meta_norad_cat_id": 43461,
        "meta_element_set_no": 999,
        "meta_rev_at_epoch": 40639,
        "meta_bstar": 0.00011249233,
        "meta_mean_motion_dot": 4.96e-06,
        "meta_mean_motion_ddot": 0,
        "tle_line1": "1 43461U 18043A   25359.87165861  .00000496  00000+0  11249-3 0  9998",
        "tle_line2": "2 43461  98.4347 323.0695 0000548 234.7022 125.4127 14.60423654406399"
      },
      "geometry": {
        "type": "Point",
        "coordinates": [
          -33.218778249327,
          -18.69883780275069
        ]
      }
    },
    {
      "type": "Feature",
      "properties": {
        "norad_id": 43484,
        "name": "GAOFEN-6",
        "group": "resource",
        "lat": 65.29186545807322,
        "lon": 47.15314758565472,
        "alt_km": 627.5032025663659,
        "timestamp": "2025-12-26T16:33:55.241523+00:00",
        "meta_object_name": "GAOFEN-6",
        "meta_object_id": "2018-048A",
        "meta_epoch": "2025-12-26T08:08:03.367968",
        "meta_mean_motion": 14.76589886,
        "meta_eccentricity": 0.00124828,
        "meta_inclination": 97.8009,
        "meta_ra_of_asc_node": 64.148,
        "meta_arg_of_pericenter": 23.0381,
        "meta_mean_anomaly": 337.1387,
        "meta_ephemeris_type": 0,
        "meta_classification_type": "U",
        "meta_norad_cat_id": 43484,
        "meta_element_set_no": 999,
        "meta_rev_at_epoch": 40788,
        "meta_bstar": 0.00014256065,
        "meta_mean_motion_dot": 9.47e-06,
        "meta_mean_motion_ddot": 0,
        "tle_line1": "1 43484U 18048A   25360.33892787  .00000947  00000+0  14256-3 0  9997",
        "tle_line2": "2 43484  97.8009  64.1480 0012482  23.0381 337.1387 14.76589886407886"
      },
      "geometry": {
        "type": "Point",
        "coordinates": [
          47.15314758565472,
          65.29186545807322
        ]
      }
    },
    {
      "type": "Feature",
      "properties": {
        "norad_id": 43585,
        "name": "GAOFEN-11 01",
        "group": "resource",
        "lat": -73.68016223916277,
        "lon": 88.9110225999549,
        "alt_km": 423.2322851682684,
        "timestamp": "2025-12-26T16:33:55.241532+00:00",
        "meta_object_name": "GAOFEN-11 01",
        "meta_object_id": "2018-063A",
        "meta_epoch": "2025-12-26T07:35:27.936384",
        "meta_mean_motion": 15.49609771,
        "meta_eccentricity": 0.00039176,
        "meta_inclination": 97.1534,
        "meta_ra_of_asc_node": 63.1396,
        "meta_arg_of_pericenter": 242.4214,
        "meta_mean_anomaly": 117.664,
        "meta_ephemeris_type": 0,
        "meta_classification_type": "U",
        "meta_norad_cat_id": 43585,
        "meta_element_set_no": 999,
        "meta_rev_at_epoch": 41352,
        "meta_bstar": 0.00039033059,
        "meta_mean_motion_dot": 0.00021519,
        "meta_mean_motion_ddot": 0,
        "tle_line1": "1 43585U 18063A   25360.31629556  .00021519  00000+0  39033-3 0  9994",
        "tle_line2": "2 43585  97.1534  63.1396 0003917 242.4214 117.6640 15.49609771413522"
      },
      "geometry": {
        "type": "Point",
        "coordinates": [
          88.9110225999549,
          -73.68016223916277
        ]
      }
    },
    {
      "type": "Feature",
      "properties": {
        "norad_id": 43613,
        "name": "ICESAT-2",
        "group": "resource",
        "lat": 36.583521520909834,
        "lon": -116.98668882257053,
        "alt_km": 477.84619003474745,
        "timestamp": "2025-12-26T16:33:55.241543+00:00",
        "meta_object_name": "ICESAT-2",
        "meta_object_id": "2018-070A",
        "meta_epoch": "2025-12-26T05:24:18.600192",
        "meta_mean_motion": 15.28262727,
        "meta_eccentricity": 0.00031749,
        "meta_inclination": 92.0035,
        "meta_ra_of_asc_node": 244.3768,
        "meta_arg_of_pericenter": 108.9683,
        "meta_mean_anomaly": 251.1911,
        "meta_ephemeris_type": 0,
        "meta_classification_type": "U",
        "meta_norad_cat_id": 43613,
        "meta_element_set_no": 999,
        "meta_rev_at_epoch": 40604,
        "meta_bstar": 0.00045704051,
        "meta_mean_motion_dot": 0.00012586,
        "meta_mean_motion_ddot": 0,
        "tle_line1": "1 43613U 18070A   25360.22521528  .00012586  00000+0  45704-3 0  9990",
        "tle_line2": "2 43613  92.0035 244.3768 0003174 108.9683 251.1911 15.28262727406048"
      },
      "geometry": {
        "type": "Point",
        "coordinates": [
          -116.98668882257053,
          36.583521520909834
        ]
      }
    },
    {
      "type": "Feature",
      "properties": {
        "norad_id": 43719,
        "name": "HYSIS",
        "group": "resource",
        "lat": -26.40970189634149,
        "lon": -120.4101254945533,
        "alt_km": 639.7022284881414,
        "timestamp": "2025-12-26T16:33:55.241552+00:00",
        "meta_object_name": "HYSIS",
        "meta_object_id": "2018-096A",
        "meta_epoch": "2025-12-26T05:53:22.922016",
        "meta_mean_motion": 14.78680557,
        "meta_eccentricity": 7.843e-05,
        "meta_inclination": 98.0076,
        "meta_ra_of_asc_node": 63.1561,
        "meta_arg_of_pericenter": 55.2647,
        "meta_mean_anomaly": 304.8637,
        "meta_ephemeris_type": 0,
        "meta_classification_type": "U",
        "meta_norad_cat_id": 43719,
        "meta_element_set_no": 999,
        "meta_rev_at_epoch": 38186,
        "meta_bstar": 0.0001560948,
        "meta_mean_motion_dot": 1.092e-05,
        "meta_mean_motion_ddot": 0,
        "tle_line1": "1 43719U 18096A   25360.24540419  .00001092  00000+0  15609-3 0  9998",
        "tle_line2": "2 43719  98.0076  63.1561 0000784  55.2647 304.8637 14.78680557381864"
      },
      "geometry": {
        "type": "Point",
        "coordinates": [
          -120.4101254945533,
          -26.40970189634149
        ]
      }
    }
  ]
}